CCSDS_OMM_VERS = 2.0
CREATION_DATE  = 
ORIGINATOR     = 

OBJECT_NAME    = COSMOS 1933
OBJECT_ID      = 1988-020A
CENTER_NAME    = EARTH
REF_FRAME      = TEME
TIME_SYSTEM    = UTC
MEAN_ELEMENT_THEORY = SGP/SGP4

EPOCH          = 2026-02-12T03:29:42.803520
MEAN_MOTION    = 15.17759918
ECCENTRICITY   = .00029294
INCLINATION    = 82.5118
RA_OF_ASC_NODE = 276.1853
ARG_OF_PERICENTER = 305.8000
MEAN_ANOMALY   = 54.2961

EPHEMERIS_TYPE = 0
CLASSIFICATION_TYPE = U
NORAD_CAT_ID   = 18958
ELEMENT_SET_NO = 999
REV_AT_EPOCH   = 4635
BSTAR          = .18726743E-3
MEAN_MOTION_DOT = .381E-4
MEAN_MOTION_DDOT = 0

CCSDS_OMM_VERS = 2.0
CREATION_DATE  = 
ORIGINATOR     = 

OBJECT_NAME    = SL-3 R/B
OBJECT_ID      = 1988-032B
CENTER_NAME    = EARTH
REF_FRAME      = TEME
TIME_SYSTEM    = UTC
MEAN_ELEMENT_THEORY = SGP/SGP4

EPOCH          = 2026-02-12T06:02:03.211584
MEAN_MOTION    = 15.19580659
ECCENTRICITY   = .0025035
INCLINATION    = 97.5149
RA_OF_ASC_NODE = 26.6073
ARG_OF_PERICENTER = 326.6043
MEAN_ANOMALY   = 33.3612

EPHEMERIS_TYPE = 0
CLASSIFICATION_TYPE = U
NORAD_CAT_ID   = 19046
ELEMENT_SET_NO = 999
REV_AT_EPOCH   = 4824
BSTAR          = .32200596E-3
MEAN_MOTION_DOT = .6838E-4
MEAN_MOTION_DDOT = 0

CCSDS_OMM_VERS = 2.0
CREATION_DATE  = 
ORIGINATOR     = 

OBJECT_NAME    = SL-16 R/B
OBJECT_ID      = 1988-039B
CENTER_NAME    = EARTH
REF_FRAME      = TEME
TIME_SYSTEM    = UTC
MEAN_ELEMENT_THEORY = SGP/SGP4

EPOCH          = 2026-02-12T04:34:57.926208
MEAN_MOTION    = 14.19611978
ECCENTRICITY   = .00211899
INCLINATION    = 71.0146
RA_OF_ASC_NODE = 122.4680
ARG_OF_PERICENTER = 13.1128
MEAN_ANOMALY   = 347.0543

EPHEMERIS_TYPE = 0
CLASSIFICATION_TYPE = U
NORAD_CAT_ID   = 19120
ELEMENT_SET_NO = 999
REV_AT_EPOCH   = 95476
BSTAR          = .69331947E-4
MEAN_MOTION_DOT = .99E-6
MEAN_MOTION_DDOT = 0

CCSDS_OMM_VERS = 2.0
CREATION_DATE  = 
ORIGINATOR     = 

OBJECT_NAME    = COSMOS 1953
OBJECT_ID      = 1988-050A
CENTER_NAME    = EARTH
REF_FRAME      = TEME
TIME_SYSTEM    = UTC
MEAN_ELEMENT_THEORY = SGP/SGP4

EPOCH          = 2026-02-11T21:26:43.418112
MEAN_MOTION    = 15.28008555
ECCENTRICITY   = .0010817
INCLINATION    = 82.5088
RA_OF_ASC_NODE = 184.1742
ARG_OF_PERICENTER = 210.6727
MEAN_ANOMALY   = 149.3882

EPHEMERIS_TYPE = 0
CLASSIFICATION_TYPE = U
NORAD_CAT_ID   = 19210
ELEMENT_SET_NO = 999
REV_AT_EPOCH   = 3384
BSTAR          = .40145E-3
MEAN_MOTION_DOT = .11019E-3
MEAN_MOTION_DDOT = 0

CCSDS_OMM_VERS = 2.0
CREATION_DATE  = 
ORIGINATOR     = 

OBJECT_NAME    = SL-8 R/B
OBJECT_ID      = 1988-053B
CENTER_NAME    = EARTH
REF_FRAME      = TEME
TIME_SYSTEM    = UTC
MEAN_ELEMENT_THEORY = SGP/SGP4

EPOCH          = 2026-02-11T17:34:37.039296
MEAN_MOTION    = 14.38900062
ECCENTRICITY   = .00205259
INCLINATION    = 74.0485
RA_OF_ASC_NODE = 160.3079
ARG_OF_PERICENTER = 344.2937
MEAN_ANOMALY   = 122.3121

EPHEMERIS_TYPE = 0
CLASSIFICATION_TYPE = U
NORAD_CAT_ID   = 19257
ELEMENT_SET_NO = 999
REV_AT_EPOCH   = 97286
BSTAR          = .91538992E-4
MEAN_MOTION_DOT = .256E-5
MEAN_MOTION_DDOT = 0

CCSDS_OMM_VERS = 2.0
CREATION_DATE  = 
ORIGINATOR     = 

OBJECT_NAME    = COSMOS 1975
OBJECT_ID      = 1988-093A
CENTER_NAME    = EARTH
REF_FRAME      = TEME
TIME_SYSTEM    = UTC
MEAN_ELEMENT_THEORY = SGP/SGP4

EPOCH          = 2026-02-12T05:56:45.330432
MEAN_MOTION    = 15.27626334
ECCENTRICITY   = .00103477
INCLINATION    = 82.5218
RA_OF_ASC_NODE = 143.2089
ARG_OF_PERICENTER = 258.3251
MEAN_ANOMALY   = 101.6828

EPHEMERIS_TYPE = 0
CLASSIFICATION_TYPE = U
NORAD_CAT_ID   = 19573
ELEMENT_SET_NO = 999
REV_AT_EPOCH   = 1552
BSTAR          = .37628431E-3
MEAN_MOTION_DOT = .10209E-3
MEAN_MOTION_DDOT = 0

CCSDS_OMM_VERS = 2.0
CREATION_DATE  = 
ORIGINATOR     = 

OBJECT_NAME    = SL-14 R/B
OBJECT_ID      = 1988-093B
CENTER_NAME    = EARTH
REF_FRAME      = TEME
TIME_SYSTEM    = UTC
MEAN_ELEMENT_THEORY = SGP/SGP4

EPOCH          = 2026-02-12T03:15:39.398688
MEAN_MOTION    = 14.85627035
ECCENTRICITY   = .00221074
INCLINATION    = 82.5278
RA_OF_ASC_NODE = 66.0387
ARG_OF_PERICENTER = 120.6287
MEAN_ANOMALY   = 302.1389

EPHEMERIS_TYPE = 0
CLASSIFICATION_TYPE = U
NORAD_CAT_ID   = 19574
ELEMENT_SET_NO = 999
REV_AT_EPOCH   = 99724
BSTAR          = .550264E-4
MEAN_MOTION_DOT = .503E-5
MEAN_MOTION_DDOT = 0

CCSDS_OMM_VERS = 2.0
CREATION_DATE  = 
ORIGINATOR     = 

OBJECT_NAME    = SL-16 R/B
OBJECT_ID      = 1988-102B
CENTER_NAME    = EARTH
REF_FRAME      = TEME
TIME_SYSTEM    = UTC
MEAN_ELEMENT_THEORY = SGP/SGP4

EPOCH          = 2026-02-11T18:28:46.397280
MEAN_MOTION    = 14.16149059
ECCENTRICITY   = .00125932
INCLINATION    = 70.9980
RA_OF_ASC_NODE = 206.0302
ARG_OF_PERICENTER = 44.1228
MEAN_ANOMALY   = 316.0897

EPHEMERIS_TYPE = 0
CLASSIFICATION_TYPE = U
NORAD_CAT_ID   = 19650
ELEMENT_SET_NO = 999
REV_AT_EPOCH   = 92322
BSTAR          = .18372072E-3
MEAN_MOTION_DOT = .316E-5
MEAN_MOTION_DDOT = 0

CCSDS_OMM_VERS = 2.0
CREATION_DATE  = 
ORIGINATOR     = 

OBJECT_NAME    = INTERCOSMOS 24
OBJECT_ID      = 1989-080A
CENTER_NAME    = EARTH
REF_FRAME      = TEME
TIME_SYSTEM    = UTC
MEAN_ELEMENT_THEORY = SGP/SGP4

EPOCH          = 2026-02-12T05:26:35.821536
MEAN_MOTION    = 12.59522190
ECCENTRICITY   = .11878238
INCLINATION    = 82.6062
RA_OF_ASC_NODE = 120.9789
ARG_OF_PERICENTER = 351.9577
MEAN_ANOMALY   = 6.3851

EPHEMERIS_TYPE = 0
CLASSIFICATION_TYPE = U
NORAD_CAT_ID   = 20261
ELEMENT_SET_NO = 999
REV_AT_EPOCH   = 66359
BSTAR          = .15659021E-3
MEAN_MOTION_DOT = .541E-5
MEAN_MOTION_DDOT = 0

CCSDS_OMM_VERS = 2.0
CREATION_DATE  = 
ORIGINATOR     = 

OBJECT_NAME    = SL-14 R/B
OBJECT_ID      = 1989-080C
CENTER_NAME    = EARTH
REF_FRAME      = TEME
TIME_SYSTEM    = UTC
MEAN_ELEMENT_THEORY = SGP/SGP4

EPOCH          = 2026-02-11T20:52:42.289824
MEAN_MOTION    = 12.50461285
ECCENTRICITY   = .1229515
INCLINATION    = 82.5949
RA_OF_ASC_NODE = 189.7601
ARG_OF_PERICENTER = 243.7872
MEAN_ANOMALY   = 103.1843

EPHEMERIS_TYPE = 0
CLASSIFICATION_TYPE = U
NORAD_CAT_ID   = 20262
ELEMENT_SET_NO = 999
REV_AT_EPOCH   = 65692
BSTAR          = .14781E-3
MEAN_MOTION_DOT = .489E-5
MEAN_MOTION_DDOT = 0

CCSDS_OMM_VERS = 2.0
CREATION_DATE  = 
ORIGINATOR     = 

OBJECT_NAME    = DELTA 1 R/B
OBJECT_ID      = 1989-089B
CENTER_NAME    = EARTH
REF_FRAME      = TEME
TIME_SYSTEM    = UTC
MEAN_ELEMENT_THEORY = SGP/SGP4

EPOCH          = 2026-02-12T04:02:29.908608
MEAN_MOTION    = 14.50641877
ECCENTRICITY   = .00684895
INCLINATION    = 97.0724
RA_OF_ASC_NODE = 254.6630
ARG_OF_PERICENTER = 202.2397
MEAN_ANOMALY   = 157.5827

EPHEMERIS_TYPE = 0
CLASSIFICATION_TYPE = U
NORAD_CAT_ID   = 20323
ELEMENT_SET_NO = 999
REV_AT_EPOCH   = 89203
BSTAR          = .11009144E-3
MEAN_MOTION_DOT = .41E-5
MEAN_MOTION_DDOT = 0

CCSDS_OMM_VERS = 2.0
CREATION_DATE  = 
ORIGINATOR     = 

OBJECT_NAME    = ARIANE 40 R/B
OBJECT_ID      = 1990-005H
CENTER_NAME    = EARTH
REF_FRAME      = TEME
TIME_SYSTEM    = UTC
MEAN_ELEMENT_THEORY = SGP/SGP4

EPOCH          = 2026-02-12T04:06:28.586880
MEAN_MOTION    = 14.39853293
ECCENTRICITY   = .00089135
INCLINATION    = 98.3142
RA_OF_ASC_NODE = 104.5859
ARG_OF_PERICENTER = 282.5681
MEAN_ANOMALY   = 77.4510

EPHEMERIS_TYPE = 0
CLASSIFICATION_TYPE = U
NORAD_CAT_ID   = 20443
ELEMENT_SET_NO = 999
REV_AT_EPOCH   = 88913
BSTAR          = .10654701E-3
MEAN_MOTION_DOT = .292E-5
MEAN_MOTION_DDOT = 0

