COSMOS 1933             
1 18958U 88020A   26043.14563430  .00003810  00000+0  18727-3 0  9999
2 18958  82.5118 276.1853 0002929 305.8000  54.2961 15.17759918 46356
SL-3 R/B                
1 19046U 88032B   26043.25142606  .00006838  00000+0  32201-3 0  9997
2 19046  97.5149  26.6073 0025035 326.6043  33.3612 15.19580659 48245
SL-16 R/B               
1 19120U 88039B   26043.19094822  .00000099  00000+0  69332-4 0  9995
2 19120  71.0146 122.4680 0021189  13.1128 347.0543 14.19611978954768
COSMOS 1953             
1 19210U 88050A   26042.89355808  .00011019  00000+0  40145-3 0  9992
2 19210  82.5088 184.1742 0010817 210.6727 149.3882 15.28008555 33847
SL-8 R/B                
1 19257U 88053B   26042.73237314  .00000256  00000+0  91539-4 0  9995
2 19257  74.0485 160.3079 0020525 344.2937 122.3121 14.38900062972863
COSMOS 1975             
1 19573U 88093A   26043.24774688  .00010209  00000+0  37628-3 0  9994
2 19573  82.5218 143.2089 0010347 258.3251 101.6828 15.27626334 15529
SL-14 R/B               
1 19574U 88093B   26043.13587267  .00000503  00000+0  55026-4 0  9997
2 19574  82.5278  66.0387 0022107 120.6287 302.1389 14.85627035997246
SL-16 R/B               
1 19650U 88102B   26042.76998145  .00000316  00000+0  18372-3 0  9996
2 19650  70.9980 206.0302 0012593  44.1228 316.0897 14.16149059923222
INTERCOSMOS 24          
1 20261U 89080A   26043.22680349  .00000541  00000+0  15659-3 0  9993
2 20261  82.6062 120.9789 1187823 351.9577   6.3851 12.59522190663598
SL-14 R/B               
1 20262U 89080C   26042.86993391  .00000489  00000+0  14781-3 0  9993
2 20262  82.5949 189.7601 1229515 243.7872 103.1843 12.50461285656923
DELTA 1 R/B             
1 20323U 89089B   26043.16840172  .00000410  00000+0  11009-3 0  9996
2 20323  97.0724 254.6630 0068489 202.2397 157.5827 14.50641877892037
ARIANE 40 R/B           
1 20443U 90005H   26043.17116420  .00000292  00000+0  10655-3 0  9996
2 20443  98.3142 104.5859 0008913 282.5681  77.4510 14.39853293889137
